BEIDOU 3 (C01)          
1 36287U 10001A   21226.58268644 -.00000286  00000-0  00000-0 0  9991
2 36287   1.9632  48.4015 0005665  89.4885 175.4811  1.00268006 42438
BEIDOU 5 (C06)          
1 36828U 10036A   21226.57194595 -.00000104  00000-0  00000-0 0  9991
2 36828  54.1845 179.0674 0023027 183.2586 273.0261  1.00286245 40505
BEIDOU 6 (C04)          
1 37210U 10057A   21226.58661206 -.00000116  00000-0  00000-0 0  9992
2 37210   0.9353  53.2837 0005775 128.0610 153.1119  1.00271868 39551
BEIDOU 7 (C07)          
1 37256U 10068A   21226.25657808 -.00000164  00000-0  00000+0 0  9993
2 37256  50.7845 293.3117 0055492 221.2199  17.1035  0.99678585 39063
BEIDOU 8 (C08)          
1 37384U 11013A   21226.43464712 -.00000180  00000-0  00000-0 0  9995
2 37384  59.8537  57.3152 0054547 206.7033 333.8529  1.00289999 37946
BEIDOU 9 (C09)          
1 37763U 11038A   21226.35756461 -.00000043  00000-0  00000-0 0  9997
2 37763  54.4702 181.5071 0084407 226.9601 135.4672  1.00253921 36923
BEIDOU 10 (C10)         
1 37948U 11073A   21226.43242520 -.00000149  00000-0  00000-0 0  9993
2 37948  50.8629 292.9335 0077984 215.9932  65.9654  1.00280526 35672
BEIDOU 11 (C05)         
1 38091U 12008A   21226.62312897  .00000053  00000-0  00000-0 0  9991
2 38091   1.6734  69.3359 0005934 339.9143 197.0404  1.00269102 34757
BEIDOU 12 (C11)         
1 38250U 12018A   21226.46879432 -.00000076  00000-0  00000-0 0  9990
2 38250  56.7518   3.6982 0021011 244.1227  66.7331  1.86234496 63364
BEIDOU 13 (C12)         
1 38251U 12018B   21226.29863439 -.00000076  00000-0  00000-0 0  9992
2 38251  56.6742   3.0493 0012251 242.9718 358.1682  1.86234319 63362
BEIDOU 15 (C14)         
1 38775U 12050B   21226.44729632 -.00000014  00000-0  00000-0 0  9994
2 38775  55.2337 122.0288 0014435 323.9811 214.2379  1.86232273 60743
BEIDOU 16 (C02)         
1 38953U 12059A   21226.62534142 -.00000181  00000-0  00000-0 0  9996
2 38953   1.2339  83.8225 0010779 297.3305 251.3304  1.00273395 32327
BEIDOU 17 (C31)         
1 40549U 15019A   21226.43472199 -.00000165  00000-0  00000-0 0  9993
2 40549  52.4001 316.3229 0040428 189.9889  65.8416  1.00254194 23351
BEIDOU 18 (C57)         
1 40748U 15037A   21226.47073182 -.00000079  00000-0  00000-0 0  9991
2 40748  55.9336   2.0947 0003304  53.1583 213.1881  1.86233639 41193
BEIDOU 19 (C58)         
1 40749U 15037B   21226.46249404 -.00000079  00000-0  00000-0 0  9993
2 40749  55.9380   2.0848 0002131 328.2715  68.3986  1.86232292 41193
BEIDOU 20 (C18)         
1 40938U 15053A   21226.11460021 -.00000117  00000-0  00000-0 0  9996
2 40938  51.9743 279.4024 0048256 194.8839 346.1606  1.00269807 21620
BEIDOU IGSO-6 (C13)     
1 41434U 16021A   21226.50146981 -.00000135  00000-0  00000+0 0  9992
2 41434  57.6398  56.0305 0038649 210.8778 330.6758  1.00258146 19759
BEIDOU-2 G7 (C03)       
1 41586U 16037A   21226.57757896 -.00000359  00000-0  00000-0 0  9996
2 41586   1.8197  68.3560 0008818  15.0856 198.1092  1.00277688 19065
BEIDOU-3 M1 (C19)       
1 43001U 17069A   21226.37896334 -.00000013  00000-0  00000-0 0  9992
2 43001  55.3877 121.9905 0009892 295.3646 352.9845  1.86231939 25673
BEIDOU-3 M2 (C20)       
1 43002U 17069B   21226.29893563 -.00000012  00000-0  00000-0 0  9994
2 43002  55.3874 122.0296 0008886 317.4988 320.5863  1.86231503 25660
BEIDOU-3 M3 (C27)       
1 43107U 18003A   21225.71927287 -.00000076  00000-0  00000-0 0  9996
2 43107  55.3782   3.1749 0005065  63.3255 352.0280  1.86232666 24423
BEIDOU-3 M4 (C28)       
1 43108U 18003B   21226.19136397 -.00000078  00000-0  00000-0 0  9996
2 43108  55.3725   3.1475 0002616 220.8263 196.2183  1.86232653 24432
BEIDOU-3 M5 (C21)       
1 43207U 18018A   21225.47963916 -.00000002  00000-0  00000+0 0  9993
2 43207  55.3459 122.1475 0006533 340.7535  19.2789  1.86231781 23801
BEIDOU-3 M6 (C22)       
1 43208U 18018B   21225.54634712 -.00000003  00000-0  00000+0 0  9992
2 43208  55.3411 122.1472 0007771 310.7013  49.2853  1.86231625 23802
BEIDOU-3 M7 (C29)       
1 43245U 18029A   21226.09360281 -.00000079  00000-0  00000-0 0  9997
2 43245  55.3066   0.9507 0001107 121.2766  95.2771  1.86232815 22966
BEIDOU-3 M8 (C30)       
1 43246U 18029B   21225.63571441 -.00000077  00000-0  10000-3 0  9991
2 43246  55.3038   0.9968 0003242   6.4784 309.3201  1.86233202 22949
BEIDOU IGSO-7 (C16)     
1 43539U 18057A   21226.03692012 -.00000109  00000-0  00000-0 0  9992
2 43539  55.0640 178.4370 0038954 223.4829  44.7539  1.00251324 11423
BEIDOU-3 M9 (C23)       
1 43581U 18062A   21226.24035553  .00000080  00000-0  00000-0 0  9996
2 43581  54.3824 242.6135 0006150 265.9311 305.4581  1.86231891 20705
BEIDOU-3 M10 (C24)      
1 43582U 18062B   21226.31771228  .00000080  00000-0  00000-0 0  9991
2 43582  54.3803 242.6010 0004773 325.9764  28.6698  1.86232235 20709
BEIDOU-3 M11 (C25)      
1 43602U 18067A   21226.46279498  .00000083  00000-0  00000-0 0  9990
2 43602  54.4576 241.1845 0006532 349.9123 144.1305  1.86231714 20205
BEIDOU-3 M12 (C26)      
1 43603U 18067B   21226.40520641  .00000083  00000-0  00000-0 0  9994
2 43603  54.4541 241.1524 0004110 330.6663  35.2166  1.86231655 20229
BEIDOU-3 M13 (C32)      
1 43622U 18072A   21226.23727573 -.00000011  00000-0  00000-0 0  9997
2 43622  55.3122 121.6850 0006534 293.5254 349.8037  1.86231988 19727
BEIDOU-3 M14 (C33)      
1 43623U 18072B   21226.48365538 -.00000014  00000-0  00000-0 0  9997
2 43623  55.3135 121.6681 0005139 322.1489 216.6031  1.86232033 19731
BEIDOU-3 M15 (C34)      
1 43647U 18078A   21226.46062493 -.00000080  00000-0  10000-3 0  9998
2 43647  55.1996   1.1220 0005637   7.1937  51.3410  1.86232952 19243
BEIDOU-3 M16 (C35)      
1 43648U 18078B   21226.33187894 -.00000080  00000-0  00000-0 0  9994
2 43648  55.1967   1.1348 0003924  25.8088 214.7671  1.86232451 19253
BEIDOU-3 G1 (C59)       
1 43683U 18085A   21226.56091045 -.00000282  00000-0  00000-0 0  9992
2 43683   0.9764 219.8150 0003630  15.9633  69.3016  1.00275137 10335
BEIDOU-3 M17 (C36)      
1 43706U 18093A   21226.12639059  .00000080  00000-0  00000-0 0  9997
2 43706  54.4624 242.4801 0011841 269.1848  90.7164  1.86231650 18616
BEIDOU-3 M18 (C37)      
1 43707U 18093B   21226.25743799  .00000080  00000-0  00000-0 0  9999
2 43707  54.4616 242.4677 0009802 287.8840 250.7840  1.86232175 18603
BEIDOU-3 IGSO-1 (C38)   
1 44204U 19023A   21226.43412370 -.00000202  00000-0  00000-0 0  9991
2 44204  56.1027  56.2838 0019674 187.9380 349.2058  1.00278239  8632
BEIDOU-2 G8             
1 44231U 19027A   21226.58347156 -.00000251  00000-0  00000-0 0  9994
2 44231   0.2623  18.4978 0006336 177.6139 121.7060  1.00273476  8340
BEIDOU-3 IGSO-2 (C39)   
1 44337U 19035A   21226.03209769 -.00000121  00000-0  00000-0 0  9993
2 44337  55.1011 174.4802 0020135 184.9675  91.7662  1.00294677  7962
BEIDOU-3 M23 (C45)      
1 44542U 19061A   21226.49962684  .00000082  00000-0  10000-3 0  9991
2 44542  54.6872 242.5494 0008857 315.2290 338.6525  1.86231441 12862
BEIDOU-3 M24 (C46)      
1 44543U 19061B   21226.09664668  .00000080  00000-0  10000-3 0  9997
2 44543  54.6850 242.5335 0006717 299.6451 354.9905  1.86231845 12850
BEIDOU-3 IGSO-3         
1 44709U 19073A   21224.63799721 -.00000154  00000-0  00000-0 0  9990
2 44709  57.7571 299.5839 0021552 202.4449 154.6073  1.00261407  6703
BEIDOU-3 M21            
1 44793U 19078A   21226.45150303 -.00000081  00000-0  10000-3 0  9990
2 44793  55.0475   1.1821 0005362  15.5651 351.2188  1.86232615 11731
BEIDOU-3 M22            
1 44794U 19078B   21226.51942197 -.00000081  00000-0  00000-0 0  9994
2 44794  55.0232   1.1778 0003755  17.0769 306.3378  1.86233039 11727
BEIDOU-3 M19            
1 44864U 19090A   21226.41221799 -.00000013  00000-0  00000-0 0  9998
2 44864  55.2470 121.9074 0016012 269.6699 176.4616  1.86232066 11313
BEIDOU-3 M20            
1 44865U 19090B   21226.40351128 -.00000013  00000-0  00000-0 0  9998
2 44865  55.2494 121.9378 0014746 284.9203 245.2852  1.86232018 11280
BEIDOU-3 G2             
1 45344U 20017A   21226.57064789 -.00000143  00000-0  00000-0 0  9998
2 45344   2.3564 338.3518 0004007 149.6350 120.6750  1.00271015  5544
BEIDOU-3 G3             
1 45807U 20040A   21226.57757895 -.00000356  00000-0  00000-0 0  9991
2 45807   2.1517 298.6711 0007113 340.4299   2.5595  1.00268978  4358
